[{"OBJECT_NAME":"STARLINK-35306","OBJECT_ID":"2026-003AD","EPOCH":"2026-03-09T11:40:24.934080","MEAN_MOTION":15.2760162,"ECCENTRICITY":4.133e-5,"INCLINATION":42.9965,"RA_OF_ASC_NODE":228.1323,"ARG_OF_PERICENTER":331.1581,"MEAN_ANOMALY":28.9248,"EPHEMERIS_TYPE":0,"CLASSIFICATION_TYPE":"U","NORAD_CAT_ID":67361,"ELEMENT_SET_NO":999,"REV_AT_EPOCH":879,"BSTAR":0.0012615773,"MEAN_MOTION_DOT":0.0003464,"MEAN_MOTION_DDOT":0},{"OBJECT_NAME":"DELTA 1 DEB","OBJECT_ID":"1977-065BM","EPOCH":"2026-03-09T08:53:34.800288","MEAN_MOTION":14.77293363,"ECCENTRICITY":0.02802368,"INCLINATION":28.9467,"RA_OF_ASC_NODE":72.3418,"ARG_OF_PERICENTER":336.7461,"MEAN_ANOMALY":22.0666,"EPHEMERIS_TYPE":0,"CLASSIFICATION_TYPE":"U","NORAD_CAT_ID":10234,"ELEMENT_SET_NO":999,"REV_AT_EPOCH":46616,"BSTAR":0.0015812082,"MEAN_MOTION_DOT":0.00022515,"MEAN_MOTION_DDOT":0}]
